YAOGAN-43 01D           
1 60461U 24148D   26068.43560480  .00010676  00000+0  37766-3 0  9999
2 60461  35.0010  61.7102 0002556 326.2473  33.8080 15.28369377 87008
STARLINK-32526          
1 62162U 24224Z   26067.33682802  .00047803  00000+0  17346-2 0  9998
2 62162  43.0003 169.1623 0000646 192.8107 167.2729 15.27595722 72223
