[{"OBJECT_NAME":"YAOGAN-43 01D","OBJECT_ID":"2024-148D","EPOCH":"2026-03-09T10:27:16.254720","MEAN_MOTION":15.28369377,"ECCENTRICITY":0.00025569,"INCLINATION":35.001,"RA_OF_ASC_NODE":61.7102,"ARG_OF_PERICENTER":326.2473,"MEAN_ANOMALY":33.808,"EPHEMERIS_TYPE":0,"CLASSIFICATION_TYPE":"U","NORAD_CAT_ID":60461,"ELEMENT_SET_NO":999,"REV_AT_EPOCH":8700,"BSTAR":0.00037765912,"MEAN_MOTION_DOT":0.00010676,"MEAN_MOTION_DDOT":0},{"OBJECT_NAME":"STARLINK-32526","OBJECT_ID":"2024-224Z","EPOCH":"2026-03-08T08:05:01.940928","MEAN_MOTION":15.27595722,"ECCENTRICITY":6.467e-5,"INCLINATION":43.0003,"RA_OF_ASC_NODE":169.1623,"ARG_OF_PERICENTER":192.8107,"MEAN_ANOMALY":167.2729,"EPHEMERIS_TYPE":0,"CLASSIFICATION_TYPE":"U","NORAD_CAT_ID":62162,"ELEMENT_SET_NO":999,"REV_AT_EPOCH":7222,"BSTAR":0.0017346028,"MEAN_MOTION_DOT":0.00047803,"MEAN_MOTION_DDOT":0}]
